ALSAT-1N
1 41789U 16059G   25006.11315123  .00002744  00000-0  48703-3 0  9992
2 41789  97.8151  28.2966 0028058  72.8347 287.5927 14.67718749442643
CAS-2T & KS-1Q
1 41847U 16066G   25005.72113611  .00002801  00000-0  41260-3 0  9994
2 41847  98.4389  81.4843 0347873 286.7261  69.6028 14.42663067428687
GOES-16
1 41866U 16071A   25006.09077347 -.00000234  00000-0  00000+0 0  9999
2 41866   0.0376 194.6541 0001518 128.6926 100.0448  1.00272035 29819
FENGYUN-4A
1 41882U 16077A   25006.14354983 -.00000184  00000-0  00000+0 0  9997
2 41882   0.9754  85.7591 0010595 343.5698 174.7514  1.00271003 29692
FOX-1B (AO-91)
1 43017U 17073E   25005.58095559  .00018659  00000-0  10229-2 0  9996
2 43017  97.5471 240.4491 0188184 334.0814  25.1073 15.00282739385930
CANX-2
1 32790U 08021H   25005.86748641  .00009859  00000-0  81154-3 0  9991
2 32790  97.7980 334.9601 0013125  29.4684 330.7276 14.99239341905696
AIST-2 (RS-43)
1 39133U 13015D   25006.19564401  .00011276  00000-0  55993-3 0  9993
2 39133  64.8699 170.0189 0025436 299.3271  60.5315 15.17767693644121
NANOSATC-BR1
1 40024U 14033Q   25005.69547116  .00021263  00000-0  12404-2 0  9999
2 40024  98.0840 353.6864 0004523 181.3382 178.7835 15.11975994573753
QB50P1
1 40025U 14033R   25005.72267845  .00015748  00000-0  10785-2 0  9993
2 40025  98.0692 340.3584 0010086 210.6360 149.4277 15.06127695573299
QB50P2
1 40032U 14033Y   25005.69023848  .00014261  00000-0  10232-2 0  9996
2 40032  98.0279 330.5165 0009838 150.3219 209.8566 15.04411563573054
PERSEUS-M2
1 40037U 14033AD  25006.04256507  .00005511  00000-0  54101-3 0  9993
2 40037  97.9431 303.9706 0010972 242.7614 117.2487 14.92561034572562
PERSEUS-M1
1 40039U 14033AF  25006.09041529  .00005835  00000-0  57387-3 0  9994
2 40039  97.9195 299.4695 0010752 241.6099 118.4036 14.92463441572430
POLYITAN-1
1 40042U 14033AJ  25005.65421350  .00020915  00000-0  12285-2 0  9996
2 40042  98.0928 345.8151 0011431 158.0151 202.1570 15.11684974573329
TIGRISAT
1 40043U 14033AK  25005.41006286  .00005348  00000-0  67273-3 0  9999
2 40043  97.7127 166.0293 0053059   5.1767 354.9984 14.81468777567374
UKUBE-1
1 40074U 14037F   25005.81143451  .00017353  00000-0  13723-2 0  9996
2 40074  98.3693 315.3502 0003187  85.2115 274.9470 15.00710946569090
DEORBITSAIL
1 40719U 15032E   25006.19183107  .00015672  00000-0  15122-2 0  9999
2 40719  97.6593 229.5202 0011286 178.1416 181.9848 14.92908310512318
HORYU-IV
1 41340U 16012D   25005.50183232  .00031777  00000-0  11488-2 0  9997
2 41340  30.9982  87.4134 0006864 236.9875 123.0108 15.27239992488987
D-SAT
1 42794U 17036AF  25005.67924393  .00011621  00000-0  70709-3 0  9995
2 42794  97.5000 347.0178 0099952 177.5954 182.5776 15.06417440411140
CORVUS-BC2
1 42846U 17042X   25005.75531463  .00006948  00000-0  54769-3 0  9995
2 42846  97.3672 186.0446 0013913  93.9762 266.3053 15.00979046407795
CORVUS-BC1
1 42847U 17042Y   25005.76276161  .00008028  00000-0  62961-3 0  9992
2 42847  97.3686 186.4737 0013521  70.0692 290.1989 15.01132926407816
APRIZESAT-5 
1 37792U 11044E   25006.22947540  .00003482  00000-0  46571-3 0  9997
2 37792  98.2346 280.7492 0052649 257.9700 101.5607 14.79227351720976
APRIZESAT-6
1 37793U 11044F   25005.45414142  .00002830  00000-0  41757-3 0  9996
2 37793  98.2772 259.6177 0043782 334.1335 199.6190 14.75506917719286
APRIZESAT-7
1 39416U 13066A   25005.83085828  .00004019  00000-0  42576-3 0  9994
2 39416  97.7006 324.8707 0038096 156.1197 204.1798 14.89139660602670
APRIZESAT-8
1 39425U 13066K   25005.84205221  .00002659  00000-0  30731-3 0  9994
2 39425  97.7571 318.5776 0046633 218.9723 140.8129 14.85649683601312
BUGSAT-1 (TITA)
1 40014U 14033E   25005.77857047  .00009387  00000-0  60153-3 0  9992
2 40014  98.0978  63.9524 0032848 170.5960 189.5889 15.08322351576134
SAUDISAT-4
1 40016U 14033G   25005.80369540  .00002111  00000-0  29335-3 0  9999
2 40016  97.6837 167.9982 0045781 351.6185   8.4256 14.78172852568143
TABLETSAT-AURORA
1 40017U 14033H   25006.04898782  .00013355  00000-0  86519-3 0  9991
2 40017  98.0968  45.3312 0013224 204.1812 155.8795 15.08198803575507
APRIZESAT-9
1 40018U 14033J   25005.97347519  .00002282  00000-0  35026-3 0  9994
2 40018  97.8284 149.9123 0068980  95.3152 265.5931 14.72945096566047
APRIZESAT-10
1 40019U 14033K   25006.08371845  .00002405  00000-0  39153-3 0  9999
2 40019  97.8930 142.4290 0080874 156.3227 204.1734 14.69758066564971
AISAT
1 40054U 14034B   25006.19448540  .00018041  00000-0  16273-2 0  9998
2 40054  98.3097 238.8895 0008401 166.8167 193.3273 14.95573666568089
COSMOS-2407 [+]
1 28380U 04028A   25005.72339398  .00000152  00000-0  13968-3 0  9999
2 28380  82.9610 105.4551 0037899 288.0607 228.5709 13.76264310 27327
COSMOS-2414 [+]
1 28521U 05002A   25005.74412336  .00000161  00000-0  12110-3 0  9993
2 28521  82.9493  82.5703 0040832  35.1988 325.1859 13.87842934 10655
COSMOS-2463 [+]
1 36519U 10017A   25005.78002454  .00000115  00000-0  10964-3 0  9995
2 36519  82.9607 277.2065 0036670 151.5775 233.7018 13.71605888735635
NOAA-15
1 25338U 98030A   25006.19459434  .00000475  00000-0  21348-3 0  9990
2 25338  98.5513  34.9273 0011345  91.4468 268.8013 14.26849447386383
NOAA-18
1 28654U 05018A   25006.10207596  .00000536  00000-0  30800-3 0  9990
2 28654  98.8580  87.2442 0013939 204.4395 155.6118 14.13478830 11923
NOAA-19
1 33591U 09005A   25006.15438670  .00000463  00000-0  27116-3 0  9995
2 33591  99.0212  69.8479 0014670  81.0803 279.2029 14.13252642820299
SARAL
1 39086U 13009A   25006.12541503  .00000419  00000-0  17045-3 0  9997
2 39086  98.5485 194.4939 0002769  61.2319 298.9143 14.32627870620130
HODOYOSHI-1
1 40299U 14070B   25006.11496445  .00154106  00000-0  91717-3 0  9998
2 40299  97.1039  72.6783 0003824   8.9556 351.1778 15.77516769566742
LAPAN-A3
1 41603U 16040E   25006.11773354  .00006999  00000-0  25800-3 0  9990
2 41603  97.1393  16.9675 0013390  98.6805 261.5953 15.28017241474180
BIROS
1 41604U 16040F   25005.50323923  .00039185  00000-0  69901-3 0  9999
2 41604  97.1058  35.3762 0008179  43.2815 316.9079 15.49940538475381
METOP-A
1 29499U 06044A   25005.81391187  .00004172  00000-0  51047-3 0  9991
2 29499  98.3398  92.3288 0181585 307.6859 156.5138 14.72776479947736
METEOR M1
1 35865U 09049A   25005.88423015  .00000462  00000-0  22471-3 0  9993
2 35865  98.6639 329.5137 0003070  52.2200 307.9256 14.22921311794391
METOP-B
1 38771U 12049A   25006.10204245  .00000411  00000-0  20757-3 0  9993
2 38771  98.6026  64.4887 0001850  92.6030 267.5359 14.21404518638374
METEOR M2
1 40069U 14037A   25006.16134533  .00000439  00000-0  22109-3 0  9996
2 40069  98.4536 357.5212 0006672 122.1528 238.0298 14.21185108544458
CSSWE
1 38761U 12048D   25005.39349115  .00030491  00000-0  12894-2 0  9990
2 38761  64.6681  42.6260 0120917 315.1618  43.9783 15.16614698 35653
MCUBED-2
1 39469U 13072H   25005.34912242  .00032706  00000-0  17214-2 0  9998
2 39469 120.4952 139.5127 0191269 164.8888 195.7990 15.01030756 38116
IPEX
1 39471U 13072K   25006.21704927  .00023848  00000-0  14155-2 0  9995
2 39471 120.4694 114.2132 0204351 159.7197 201.2119 14.95475986 36058
FOX-1A (AO-85)
1 40967U 15058D   25005.79093686  .00010715  00000-0  92177-3 0  9998
2 40967  64.7765 112.6794 0181807 243.3921 114.8463 14.85846279 35056
OOREOS
1 37224U 10062C   25005.49005531  .00005950  00000-0  62215-3 0  9994
2 37224  71.9706 192.5349 0015528 343.6581  16.4085 14.89924147 37939
STARS (KUKAI)
1 33498U 09002G   25005.27017923  .00011474  00000-0  12094-2 0  9996
2 33498  98.1206 290.0029 0010998 103.6446 256.5996 14.89455417859718
YUBELEINY-2 (RS-40)
1 38735U 12041C   25005.83293115  .00000038  00000-0  20498-3 0  9995
2 38735  82.4751  43.5204 0018363 135.4706 224.7853 12.42623478564342
AIST-1
1 39492U 13078C   25006.18431414  .00004006  00000-0  37804-3 0  9990
2 39492  82.4158  60.4681 0016432 238.2898 121.6721 14.93441006598844
VELOX-1
1 40057U 14034E   25006.18720141  .00012135  00000-0  12481-2 0  9995
2 40057  98.3142 237.4806 0007597 194.7393 165.3603 14.90460170567890
DX1
1 40071U 14037C   25006.19334039  .00005018  00000-0  56702-3 0  9999
2 40071  98.3362 294.1634 0007453 174.6933 185.4362 14.86968216567789
AAUSAT CUBESAT 2
1 32788U 08021F   25005.49053888  .00084564  00000-0  20561-2 0  9999
2 32788  97.6058 355.3646 0005217 125.3898 234.7836 15.40647088909192
COSMOS-2491 (RS-46) [i]
1 39497U 13076E   25006.25902016  .00000052  00000-0  29965-3 0  9998
2 39497  82.4864 136.9250 0013637 157.8891 202.2780 12.43485079500527
COSMOS-2499 (RS-47) [i]
1 39765U 14028E   25006.07795051  .00000015  00000-0  82225-5 0  9992
2 39765  82.4480 248.0955 0231783 158.9449 202.1391 12.82884481497650
TRANSIT 5B-5
1   965U 64083D   25006.10449295  .00000127  00000-0  16439-3 0  9994
2   965  90.0502 199.3797 0042048  21.8687  93.3045 13.56937891972692
EUTELSAT 1-F4 (ECS 4)
1 18351U 87078B   25005.58978799  .00000016  00000-0  00000-0 0  9999
2 18351  14.2055 345.8357 0008813  16.1238  35.0085  0.98686560121556
BISONSAT
1 40968U 15058E   25005.42931328  .00015896  00000-0  12822-2 0  9996
2 40968  64.7770 104.1959 0173691 242.5324 115.8036 14.88917666 37873
DTUSAT-2
1 40030U 14033W   25004.86331551  .00010795  00000-0  77846-3 0  9998
2 40030  98.0363 329.7956 0008566 219.1826 140.8779 15.04304295572950
ELEKTRO-L2
1 41105U 15074A   25005.45895640 -.00000105  00000-0  00000-0 0  9998
2 41105   5.3571  77.0265 0003908 201.8775 337.1495  1.00271407 33214
DOVE-3
1 39429U 13066P   25006.10954276  .00009554  00000-0  13752-2 0  9993
2 39429  97.7319 247.2496 0122092 289.1372  69.6651 14.71535643593567
FORTE
1 24920U 97047A   25005.76994748  .00000927  00000-0  39921-3 0  9995
2 24920  69.9537 124.9650 0025363 276.3026  83.5207 14.27521431423408
DMSP 5D-2 F15/USA-147
1 25991U 99067A   25006.12817962  .00000470  00000-0  25547-3 0  9993
2 25991  99.0542  31.4025 0010726  63.6598 341.2484 14.17259286296003
